{"type": "FeatureCollection", "features": [{"type": "Feature", "properties": {"name": "藏南", "kind": "zangnan"}, "geometry": {"type": "Polygon", "coordinates": [[[91.997546, 29.004148], [91.916125, 29.171484], [91.865457, 29.179289], [91.84451, 29.224808], [91.884038, 29.351103], [91.989546, 29.439148], [91.974019, 29.5039], [92.007009, 29.551974], [91.842575, 29.582251], [91.726958, 29.524535], [91.631773, 29.528409], [91.633365, 29.314816], [91.54162, 29.257596], [91.580245, 29.182234], [91.686097, 29.209942], [91.757755, 29.134338], [91.761626, 29.041636], [91.792079, 29.012113], [91.72498, 28.850782], [91.847908, 28.843514], [91.913501, 28.788249], [91.886576, 28.751497], [91.937502, 28.746707], [92.027182, 28.856897], [91.997546, 29.004148]]]}}, {"type": "Feature", "properties": {"name": "藏南", "kind": "zangnan"}, "geometry": {"type": "Polygon", "coordinates": [[[91.580245, 29.182234], [91.521749, 29.125676], [91.507125, 29.042462], [91.369013, 29.002762], [91.366906, 28.942386], [91.671559, 28.813757], [91.746228, 28.882241], [91.74868, 28.951566], [91.792079, 29.012113], [91.761626, 29.041636], [91.757755, 29.134338], [91.686097, 29.209942], [91.580245, 29.182234]]]}}, {"type": "Feature", "properties": {"name": "藏南", "kind": "zangnan"}, "geometry": {"type": "Polygon", "coordinates": [[[91.957072, 28.771516], [92.053247, 28.716419], [92.10499, 28.644244], [92.178412, 28.623639], [92.232607, 28.650283], [92.200907, 28.735498], [92.275619, 28.748806], [92.329555, 28.717514], [92.42844, 28.802851], [92.473516, 28.855361], [92.414934, 28.87914], [92.329125, 29.077548], [92.400439, 29.193218], [92.388525, 29.230166], [92.194326, 29.243058], [92.160777, 29.270131], [92.116689, 29.199195], [92.065376, 29.195132], [92.034623, 29.147979], [92.088689, 29.082088], [91.997546, 29.004148], [92.027182, 28.856897], [91.957072, 28.771516]]]}}, {"type": "Feature", "properties": {"name": "藏南", "kind": "zangnan"}, "geometry": {"type": "Polygon", "coordinates": [[[91.366906, 28.942386], [91.298216, 28.956701], [91.24144, 28.836423], [91.267591, 28.773615], [91.361572, 28.775743], [91.357486, 28.723844], [91.324496, 28.725855], [91.332711, 28.670261], [91.282258, 28.591924], [91.227117, 28.590562], [91.232709, 28.566924], [91.152319, 28.551845], [91.107157, 28.507749], [91.130469, 28.496485], [91.110297, 28.407189], [91.149739, 28.340414], [91.136018, 28.212918], [91.168535, 28.184707], [91.28157, 28.226085], [91.501834, 28.22766], [91.551169, 28.322035], [91.544459, 28.379475], [91.612891, 28.392324], [91.608117, 28.42849], [91.642526, 28.453048], [91.89978, 28.415289], [91.982105, 28.492453], [91.87221, 28.703905], [91.890834, 28.788899], [91.913501, 28.788249], [91.892855, 28.818368], [91.696979, 28.854889], [91.700936, 28.825371], [91.653881, 28.810831], [91.366906, 28.942386]]]}}, {"type": "Feature", "properties": {"name": "藏南", "kind": "zangnan"}, "geometry": {"type": "Polygon", "coordinates": [[[91.957072, 28.771516], [91.890232, 28.750847], [91.873027, 28.714467], [91.927652, 28.630301], [91.921587, 28.585616], [91.986966, 28.526391], [91.969331, 28.459631], [91.920211, 28.443053], [91.899694, 28.397814], [92.018278, 28.32928], [92.017332, 28.25577], [92.079183, 28.220854], [92.274027, 28.322807], [92.338889, 28.295427], [92.359019, 28.321293], [92.568358, 28.304961], [92.516485, 28.121808], [92.575369, 28.093632], [92.744793, 28.092829], [92.783546, 28.106189], [92.819504, 28.181288], [92.961874, 28.2599], [92.999294, 28.23087], [93.044328, 28.304189], [93.311302, 28.330616], [93.733077, 28.219219], [93.779917, 28.263733], [93.910502, 28.239517], [93.953212, 28.274368], [94.15825, 28.183934], [94.159584, 28.228343], [94.031752, 28.362261], [93.893684, 28.388378], [93.889426, 28.550393], [93.755659, 28.688816], [93.646537, 28.652473], [93.621504, 28.679376], [93.471436, 28.667864], [93.469414, 28.701864], [93.377971, 28.708254], [93.322701, 28.754691], [93.08777, 28.723962], [92.974476, 28.731327], [92.920711, 28.769623], [92.86871, 28.701509], [92.819375, 28.698491], [92.777267, 28.745198], [92.650467, 28.757086], [92.557906, 28.805334], [92.49356, 28.71494], [92.419579, 28.812309], [92.329555, 28.717514], [92.275619, 28.748806], [92.200907, 28.735498], [92.232607, 28.650283], [92.178412, 28.623639], [92.10499, 28.644244], [92.053247, 28.716419], [91.957072, 28.771516]]]}}, {"type": "Feature", "properties": {"name": "藏南", "kind": "zangnan"}, "geometry": {"type": "Polygon", "coordinates": [[[91.89978, 28.415289], [91.718227, 28.429261], [91.70356, 28.45969], [91.615429, 28.437714], [91.612891, 28.392324], [91.539384, 28.370809], [91.551169, 28.322035], [91.511512, 28.236932], [91.443381, 28.214226], [91.484887, 28.172904], [91.483038, 28.128531], [91.437746, 28.105445], [91.401229, 28.025886], [91.465274, 28.002719], [91.486565, 27.937537], [91.555083, 27.888715], [91.597923, 27.898433], [91.624633, 27.869275], [91.543986, 27.825553], [91.616461, 27.816961], [91.642268, 27.766622], [91.628332, 27.701508], [91.563728, 27.639432], [91.58489, 27.540331], [91.733324, 27.462901], [91.83922, 27.489685], [92.01045, 27.474663], [92.053763, 27.41171], [92.125937, 27.273227], [92.076989, 27.24837], [92.026752, 27.108421], [92.124733, 26.96006], [92.109162, 26.854815], [92.647155, 26.952513], [92.802902, 26.895222], [92.909227, 26.914352], [93.11134, 26.88024], [93.567783, 26.938081], [93.81708, 27.025402], [93.862199, 27.187209], [94.253479, 27.555434], [94.216488, 27.602642], [94.233951, 27.632081], [94.362557, 27.714229], [94.311115, 27.741847], [94.350556, 27.82955], [94.317609, 27.851383], [94.303071, 27.944987], [94.205563, 27.996494], [94.145691, 28.086788], [94.15825, 28.183934], [93.953212, 28.274368], [93.910502, 28.239517], [93.779917, 28.263733], [93.733077, 28.219219], [93.311302, 28.330616], [93.138438, 28.329102], [93.036284, 28.300298], [92.999294, 28.23087], [92.961874, 28.2599], [92.819504, 28.181288], [92.776363, 28.100417], [92.575369, 28.093632], [92.516485, 28.121808], [92.568358, 28.304961], [92.359019, 28.321293], [92.338889, 28.295427], [92.274027, 28.322807], [92.079183, 28.220854], [92.017332, 28.25577], [92.018278, 28.32928], [91.94219, 28.359263], [91.89978, 28.415289]]]}}, {"type": "Feature", "properties": {"name": "钓鱼岛", "kind": "diaoyu"}, "geometry": {"type": "Polygon", "coordinates": [[[123.45, 25.73], [123.5, 25.73], [123.5, 25.76], [123.45, 25.76], [123.45, 25.73]]]}}, {"type": "Feature", "properties": {"name": "钓鱼岛", "kind": "diaoyu"}, "geometry": {"type": "Polygon", "coordinates": [[[123.67, 25.92], [123.7, 25.92], [123.7, 25.94], [123.67, 25.94], [123.67, 25.92]]]}}, {"type": "Feature", "properties": {"name": "钓鱼岛", "kind": "diaoyu"}, "geometry": {"type": "Polygon", "coordinates": [[[124.55, 25.91], [124.57, 25.91], [124.57, 25.93], [124.55, 25.93], [124.55, 25.91]]]}}]}